{
  "type": "FeatureCollection",
  "features": [
    {
      "type": "Feature",
      "properties": {
        "norad_id": 37781,
        "name": "HAIYANG-2A",
        "group": "resource",
        "lat": -10.205039028402446,
        "lon": -10.879394442289735,
        "alt_km": 972.1480886465597,
        "timestamp": "2025-12-12T11:38:31.073022+00:00",
        "meta_object_name": "HAIYANG-2A",
        "meta_object_id": "2011-043A",
        "meta_epoch": "2025-12-12T04:43:33.238272",
        "meta_mean_motion": 13.78834782,
        "meta_eccentricity": 0.0001647,
        "meta_inclination": 99.3382,
        "meta_ra_of_asc_node": 347.1395,
        "meta_arg_of_pericenter": 83.2102,
        "meta_mean_anomaly": 276.9237,
        "meta_ephemeris_type": 0,
        "meta_classification_type": "U",
        "meta_norad_cat_id": 37781,
        "meta_element_set_no": 999,
        "meta_rev_at_epoch": 72091,
        "meta_bstar": -7.3335e-05,
        "meta_mean_motion_dot": -1.19e-06,
        "meta_mean_motion_ddot": 0,
        "tle_line1": "1 37781U 11043A   25346.19691248 -.00000119  00000+0 -73335-4 0  9992",
        "tle_line2": "2 37781  99.3382 347.1395 0001647  83.2102 276.9237 13.78834782720914"
      },
      "geometry": {
        "type": "Point",
        "coordinates": [
          -10.879394442289735,
          -10.205039028402446
        ]
      }
    },
    {
      "type": "Feature",
      "properties": {
        "norad_id": 37791,
        "name": "RASAT",
        "group": "resource",
        "lat": 24.40225421184652,
        "lon": 72.05810254977814,
        "alt_km": 655.4473542204387,
        "timestamp": "2025-12-12T11:38:31.073032+00:00",
        "meta_object_name": "RASAT",
        "meta_object_id": "2011-044D",
        "meta_epoch": "2025-12-12T05:13:34.489920",
        "meta_mean_motion": 14.67908531,
        "meta_eccentricity": 0.0021901,
        "meta_inclination": 98.0646,
        "meta_ra_of_asc_node": 75.4828,
        "meta_arg_of_pericenter": 66.5155,
        "meta_mean_anomaly": 346.6099,
        "meta_ephemeris_type": 0,
        "meta_classification_type": "U",
        "meta_norad_cat_id": 37791,
        "meta_element_set_no": 999,
        "meta_rev_at_epoch": 76575,
        "meta_bstar": 0.00018696,
        "meta_mean_motion_dot": 1.024e-05,
        "meta_mean_motion_ddot": 0,
        "tle_line1": "1 37791U 11044D   25346.21776030  .00001024  00000+0  18696-3 0  9992",
        "tle_line2": "2 37791  98.0646  75.4828 0021901  66.5155 346.6099 14.67908531765758"
      },
      "geometry": {
        "type": "Point",
        "coordinates": [
          72.05810254977814,
          24.40225421184652
        ]
      }
    },
    {
      "type": "Feature",
      "properties": {
        "norad_id": 37841,
        "name": "SRMSAT",
        "group": "resource",
        "lat": -11.998731339810634,
        "lon": -34.685219402404336,
        "alt_km": 853.7493044726789,
        "timestamp": "2025-12-12T11:38:31.073043+00:00",
        "meta_object_name": "SRMSAT",
        "meta_object_id": "2011-058D",
        "meta_epoch": "2025-12-11T16:31:02.191584",
        "meta_mean_motion": 14.1151099,
        "meta_eccentricity": 0.00117304,
        "meta_inclination": 19.9707,
        "meta_ra_of_asc_node": 114.3146,
        "meta_arg_of_pericenter": 301.8177,
        "meta_mean_anomaly": 177.8356,
        "meta_ephemeris_type": 0,
        "meta_classification_type": "U",
        "meta_norad_cat_id": 37841,
        "meta_element_set_no": 999,
        "meta_rev_at_epoch": 73129,
        "meta_bstar": 0.0001411213,
        "meta_mean_motion_dot": 5.25e-06,
        "meta_mean_motion_ddot": 0,
        "tle_line1": "1 37841U 11058D   25345.68821981  .00000525  00000+0  14112-3 0  9993",
        "tle_line2": "2 37841  19.9707 114.3146 0011730 301.8177 177.8356 14.11510990731297"
      },
      "geometry": {
        "type": "Point",
        "coordinates": [
          -34.685219402404336,
          -11.998731339810634
        ]
      }
    },
    {
      "type": "Feature",
      "properties": {
        "norad_id": 38012,
        "name": "PLEIADES 1A",
        "group": "resource",
        "lat": -8.669994791975537,
        "lon": -122.0001331753763,
        "alt_km": 702.2657463269225,
        "timestamp": "2025-12-12T11:38:31.073053+00:00",
        "meta_object_name": "PLEIADES 1A",
        "meta_object_id": "2011-076F",
        "meta_epoch": "2025-12-12T04:33:19.736928",
        "meta_mean_motion": 14.58561136,
        "meta_eccentricity": 0.0001322,
        "meta_inclination": 98.1819,
        "meta_ra_of_asc_node": 58.9663,
        "meta_arg_of_pericenter": 74.07,
        "meta_mean_anomaly": 5.0645,
        "meta_ephemeris_type": 0,
        "meta_classification_type": "U",
        "meta_norad_cat_id": 38012,
        "meta_element_set_no": 999,
        "meta_rev_at_epoch": 74473,
        "meta_bstar": 0.00018236,
        "meta_mean_motion_dot": 8.02e-06,
        "meta_mean_motion_ddot": 0,
        "tle_line1": "1 38012U 11076F   25346.18981177  .00000802  00000+0  18236-3 0  9993",
        "tle_line2": "2 38012  98.1819  58.9663 0001322  74.0700   5.0645 14.58561136744730"
      },
      "geometry": {
        "type": "Point",
        "coordinates": [
          -122.0001331753763,
          -8.669994791975537
        ]
      }
    },
    {
      "type": "Feature",
      "properties": {
        "norad_id": 38038,
        "name": "ZIYUAN 1-02C (ZY 1-02C)",
        "group": "resource",
        "lat": 63.47637197351424,
        "lon": -110.20540168871158,
        "alt_km": 754.1928932405872,
        "timestamp": "2025-12-12T11:38:31.073063+00:00",
        "meta_object_name": "ZIYUAN 1-02C (ZY 1-02C)",
        "meta_object_id": "2011-079A",
        "meta_epoch": "2025-12-12T04:46:41.490048",
        "meta_mean_motion": 14.38011706,
        "meta_eccentricity": 0.000715,
        "meta_inclination": 98.4329,
        "meta_ra_of_asc_node": 52.2222,
        "meta_arg_of_pericenter": 139.9602,
        "meta_mean_anomaly": 295.5923,
        "meta_ephemeris_type": 0,
        "meta_classification_type": "U",
        "meta_norad_cat_id": 38038,
        "meta_element_set_no": 999,
        "meta_rev_at_epoch": 73233,
        "meta_bstar": 0.00032906,
        "meta_mean_motion_dot": 9.53e-06,
        "meta_mean_motion_ddot": 0,
        "tle_line1": "1 38038U 11079A   25346.19909132  .00000953  00000+0  32906-3 0  9993",
        "tle_line2": "2 38038  98.4329  52.2222 0007150 139.9602 295.5923 14.38011706732331"
      },
      "geometry": {
        "type": "Point",
        "coordinates": [
          -110.20540168871158,
          63.47637197351424
        ]
      }
    },
    {
      "type": "Feature",
      "properties": {
        "norad_id": 38046,
        "name": "ZIYUAN 3-1 (ZY 3-1)",
        "group": "resource",
        "lat": 28.5316124183537,
        "lon": -123.17629538186223,
        "alt_km": 363.08285875899674,
        "timestamp": "2025-12-12T11:38:31.073074+00:00",
        "meta_object_name": "ZIYUAN 3-1 (ZY 3-1)",
        "meta_object_id": "2012-001A",
        "meta_epoch": "2025-12-12T04:52:30.610848",
        "meta_mean_motion": 15.68468766,
        "meta_eccentricity": 0.0001741,
        "meta_inclination": 97.1753,
        "meta_ra_of_asc_node": 52.6077,
        "meta_arg_of_pericenter": 353.7117,
        "meta_mean_anomaly": 6.4123,
        "meta_ephemeris_type": 0,
        "meta_classification_type": "U",
        "meta_norad_cat_id": 38046,
        "meta_element_set_no": 999,
        "meta_rev_at_epoch": 77488,
        "meta_bstar": 0.00082171,
        "meta_mean_motion_dot": 0.00093354,
        "meta_mean_motion_ddot": 0,
        "tle_line1": "1 38046U 12001A   25346.20313207  .00093354  00000+0  82171-3 0  9998",
        "tle_line2": "2 38046  97.1753  52.6077 0001741 353.7117   6.4123 15.68468766774889"
      },
      "geometry": {
        "type": "Point",
        "coordinates": [
          -123.17629538186223,
          28.5316124183537
        ]
      }
    },
    {
      "type": "Feature",
      "properties": {
        "norad_id": 38338,
        "name": "ARIRANG-3 (KOMPSAT-3)",
        "group": "resource",
        "lat": 79.25444301762752,
        "lon": -109.48348224025273,
        "alt_km": 681.1692641847776,
        "timestamp": "2025-12-12T11:38:31.073084+00:00",
        "meta_object_name": "ARIRANG-3 (KOMPSAT-3)",
        "meta_object_id": "2012-025B",
        "meta_epoch": "2025-12-12T03:02:54.763872",
        "meta_mean_motion": 14.61711516,
        "meta_eccentricity": 0.0005404,
        "meta_inclination": 98.3321,
        "meta_ra_of_asc_node": 300.7118,
        "meta_arg_of_pericenter": 340.8336,
        "meta_mean_anomaly": 19.266,
        "meta_ephemeris_type": 0,
        "meta_classification_type": "U",
        "meta_norad_cat_id": 38338,
        "meta_element_set_no": 999,
        "meta_rev_at_epoch": 72401,
        "meta_bstar": 0.00020464,
        "meta_mean_motion_dot": 9.71e-06,
        "meta_mean_motion_ddot": 0,
        "tle_line1": "1 38338U 12025B   25346.12702273  .00000971  00000+0  20464-3 0  9994",
        "tle_line2": "2 38338  98.3321 300.7118 0005404 340.8336  19.2660 14.61711516724014"
      },
      "geometry": {
        "type": "Point",
        "coordinates": [
          -109.48348224025273,
          79.25444301762752
        ]
      }
    }
  ]
}